[{"OBJECT_NAME":"STARLINK-34378","OBJECT_ID":"2025-123J","EPOCH":"2026-02-19T15:06:16.352352","MEAN_MOTION":14.98335393,"ECCENTRICITY":0.00025352,"INCLINATION":70.0011,"RA_OF_ASC_NODE":239.9773,"ARG_OF_PERICENTER":263.5409,"MEAN_ANOMALY":96.5462,"EPHEMERIS_TYPE":0,"CLASSIFICATION_TYPE":"U","NORAD_CAT_ID":64299,"ELEMENT_SET_NO":999,"REV_AT_EPOCH":3891,"BSTAR":0.00021934478,"MEAN_MOTION_DOT":2.526e-5,"MEAN_MOTION_DDOT":0},{"OBJECT_NAME":"STARLINK-34376","OBJECT_ID":"2025-123K","EPOCH":"2026-02-19T22:07:24.380544","MEAN_MOTION":14.96303168,"ECCENTRICITY":0.0001816,"INCLINATION":70.0007,"RA_OF_ASC_NODE":239.3939,"ARG_OF_PERICENTER":311.1989,"MEAN_ANOMALY":48.9012,"EPHEMERIS_TYPE":0,"CLASSIFICATION_TYPE":"U","NORAD_CAT_ID":64300,"ELEMENT_SET_NO":999,"REV_AT_EPOCH":3895,"BSTAR":-0.081011655,"MEAN_MOTION_DOT":-0.00851775,"MEAN_MOTION_DDOT":0},{"OBJECT_NAME":"STARLINK-34372","OBJECT_ID":"2025-123L","EPOCH":"2026-02-19T20:06:27.742176","MEAN_MOTION":14.9833077,"ECCENTRICITY":0.00028783,"INCLINATION":70.0009,"RA_OF_ASC_NODE":239.499,"ARG_OF_PERICENTER":265.4683,"MEAN_ANOMALY":94.6147,"EPHEMERIS_TYPE":0,"CLASSIFICATION_TYPE":"U","NORAD_CAT_ID":64301,"ELEMENT_SET_NO":999,"REV_AT_EPOCH":3894,"BSTAR":0.00045475452,"MEAN_MOTION_DOT":5.337e-5,"MEAN_MOTION_DDOT":0},{"OBJECT_NAME":"STARLINK-34379","OBJECT_ID":"2025-123M","EPOCH":"2026-02-19T20:21:51.227712","MEAN_MOTION":15.42738062,"ECCENTRICITY":0.00031211,"INCLINATION":70.0015,"RA_OF_ASC_NODE":213.0708,"ARG_OF_PERICENTER":279.6312,"MEAN_ANOMALY":80.4517,"EPHEMERIS_TYPE":0,"CLASSIFICATION_TYPE":"U","NORAD_CAT_ID":64302,"ELEMENT_SET_NO":999,"REV_AT_EPOCH":3960,"BSTAR":0.00064004684,"MEAN_MOTION_DOT":0.00028007,"MEAN_MOTION_DDOT":0},{"OBJECT_NAME":"STARLINK-34356","OBJECT_ID":"2025-123N","EPOCH":"2026-02-19T22:30:39.459744","MEAN_MOTION":14.98311892,"ECCENTRICITY":0.00031052,"INCLINATION":70.0018,"RA_OF_ASC_NODE":239.0394,"ARG_OF_PERICENTER":266.5144,"MEAN_ANOMALY":93.566,"EPHEMERIS_TYPE":0,"CLASSIFICATION_TYPE":"U","NORAD_CAT_ID":64303,"ELEMENT_SET_NO":999,"REV_AT_EPOCH":3896,"BSTAR":5.680265e-5,"MEAN_MOTION_DOT":5.85e-6,"MEAN_MOTION_DDOT":0},{"OBJECT_NAME":"STARLINK-34360","OBJECT_ID":"2025-123P","EPOCH":"2026-02-19T15:36:16.487712","MEAN_MOTION":14.98329288,"ECCENTRICITY":0.00032997,"INCLINATION":70,"RA_OF_ASC_NODE":240.0438,"ARG_OF_PERICENTER":297.556,"MEAN_ANOMALY":62.5263,"EPHEMERIS_TYPE":0,"CLASSIFICATION_TYPE":"U","NORAD_CAT_ID":64304,"ELEMENT_SET_NO":999,"REV_AT_EPOCH":3891,"BSTAR":-0.0012978624,"MEAN_MOTION_DOT":-0.00015545,"MEAN_MOTION_DDOT":0},{"OBJECT_NAME":"STARLINK-34383","OBJECT_ID":"2025-123Q","EPOCH":"2026-02-19T22:24:55.426176","MEAN_MOTION":14.98329131,"ECCENTRICITY":0.00031273,"INCLINATION":70.0001,"RA_OF_ASC_NODE":239.4274,"ARG_OF_PERICENTER":267.4684,"MEAN_ANOMALY":92.6117,"EPHEMERIS_TYPE":0,"CLASSIFICATION_TYPE":"U","NORAD_CAT_ID":64305,"ELEMENT_SET_NO":999,"REV_AT_EPOCH":3895,"BSTAR":0.00038911286,"MEAN_MOTION_DOT":4.553e-5,"MEAN_MOTION_DDOT":0},{"OBJECT_NAME":"STARLINK-34355","OBJECT_ID":"2025-123R","EPOCH":"2026-02-19T22:18:53.896608","MEAN_MOTION":14.98337245,"ECCENTRICITY":0.00030036,"INCLINATION":69.9997,"RA_OF_ASC_NODE":239.416,"ARG_OF_PERICENTER":268.8261,"MEAN_ANOMALY":91.2554,"EPHEMERIS_TYPE":0,"CLASSIFICATION_TYPE":"U","NORAD_CAT_ID":64306,"ELEMENT_SET_NO":999,"REV_AT_EPOCH":3895,"BSTAR":0.0002764037,"MEAN_MOTION_DOT":3.207e-5,"MEAN_MOTION_DDOT":0},{"OBJECT_NAME":"STARLINK-34380","OBJECT_ID":"2025-123S","EPOCH":"2026-02-19T22:12:53.733888","MEAN_MOTION":14.98351197,"ECCENTRICITY":0.00025985,"INCLINATION":69.9999,"RA_OF_ASC_NODE":239.3996,"ARG_OF_PERICENTER":272.3127,"MEAN_ANOMALY":87.7734,"EPHEMERIS_TYPE":0,"CLASSIFICATION_TYPE":"U","NORAD_CAT_ID":64307,"ELEMENT_SET_NO":999,"REV_AT_EPOCH":3895,"BSTAR":0.00041459656,"MEAN_MOTION_DOT":4.86e-5,"MEAN_MOTION_DDOT":0},{"OBJECT_NAME":"STARLINK-34374","OBJECT_ID":"2025-123T","EPOCH":"2026-02-19T20:18:34.019712","MEAN_MOTION":14.98515528,"ECCENTRICITY":0.00038049,"INCLINATION":70.0017,"RA_OF_ASC_NODE":239.5245,"ARG_OF_PERICENTER":266.1282,"MEAN_ANOMALY":93.9443,"EPHEMERIS_TYPE":0,"CLASSIFICATION_TYPE":"U","NORAD_CAT_ID":64308,"ELEMENT_SET_NO":999,"REV_AT_EPOCH":3894,"BSTAR":0.0033565808,"MEAN_MOTION_DOT":0.00040384,"MEAN_MOTION_DDOT":0},{"OBJECT_NAME":"STARLINK-34370","OBJECT_ID":"2025-123U","EPOCH":"2026-02-19T21:42:49.940352","MEAN_MOTION":14.98335783,"ECCENTRICITY":0.00025933,"INCLINATION":70.0006,"RA_OF_ASC_NODE":239.3261,"ARG_OF_PERICENTER":266.7417,"MEAN_ANOMALY":93.3445,"EPHEMERIS_TYPE":0,"CLASSIFICATION_TYPE":"U","NORAD_CAT_ID":64309,"ELEMENT_SET_NO":999,"REV_AT_EPOCH":3895,"BSTAR":0.0001963503,"MEAN_MOTION_DOT":2.251e-5,"MEAN_MOTION_DDOT":0},{"OBJECT_NAME":"STARLINK-34357","OBJECT_ID":"2025-123V","EPOCH":"2026-02-19T22:12:38.971584","MEAN_MOTION":14.98336626,"ECCENTRICITY":0.00029152,"INCLINATION":70.0001,"RA_OF_ASC_NODE":239.4048,"ARG_OF_PERICENTER":267.2428,"MEAN_ANOMALY":92.8397,"EPHEMERIS_TYPE":0,"CLASSIFICATION_TYPE":"U","NORAD_CAT_ID":64310,"ELEMENT_SET_NO":999,"REV_AT_EPOCH":3895,"BSTAR":0.00029263944,"MEAN_MOTION_DOT":3.401e-5,"MEAN_MOTION_DDOT":0},{"OBJECT_NAME":"STARLINK-34368","OBJECT_ID":"2025-123W","EPOCH":"2026-02-19T20:24:38.346912","MEAN_MOTION":14.98221737,"ECCENTRICITY":0.00026284,"INCLINATION":70.0019,"RA_OF_ASC_NODE":239.5358,"ARG_OF_PERICENTER":278.1629,"MEAN_ANOMALY":81.9232,"EPHEMERIS_TYPE":0,"CLASSIFICATION_TYPE":"U","NORAD_CAT_ID":64311,"ELEMENT_SET_NO":999,"REV_AT_EPOCH":3894,"BSTAR":0.00025732234,"MEAN_MOTION_DOT":2.97e-5,"MEAN_MOTION_DDOT":0},{"OBJECT_NAME":"STARLINK-34384","OBJECT_ID":"2025-123X","EPOCH":"2026-02-19T20:12:29.504160","MEAN_MOTION":14.98350237,"ECCENTRICITY":0.00033613,"INCLINATION":70.0016,"RA_OF_ASC_NODE":239.5153,"ARG_OF_PERICENTER":263.7837,"MEAN_ANOMALY":96.2939,"EPHEMERIS_TYPE":0,"CLASSIFICATION_TYPE":"U","NORAD_CAT_ID":64312,"ELEMENT_SET_NO":999,"REV_AT_EPOCH":3894,"BSTAR":0.0016253176,"MEAN_MOTION_DOT":0.00019364,"MEAN_MOTION_DDOT":0},{"OBJECT_NAME":"STARLINK-34358","OBJECT_ID":"2025-123Y","EPOCH":"2026-02-19T21:36:35.088768","MEAN_MOTION":14.98333632,"ECCENTRICITY":0.00023845,"INCLINATION":70.0011,"RA_OF_ASC_NODE":239.3143,"ARG_OF_PERICENTER":264.8412,"MEAN_ANOMALY":95.2475,"EPHEMERIS_TYPE":0,"CLASSIFICATION_TYPE":"U","NORAD_CAT_ID":64313,"ELEMENT_SET_NO":999,"REV_AT_EPOCH":3895,"BSTAR":9.5751179e-5,"MEAN_MOTION_DOT":1.05e-5,"MEAN_MOTION_DDOT":0},{"OBJECT_NAME":"STARLINK-34354","OBJECT_ID":"2025-123Z","EPOCH":"2026-02-19T22:00:03.000096","MEAN_MOTION":14.98314756,"ECCENTRICITY":0.00027599,"INCLINATION":70.0009,"RA_OF_ASC_NODE":239.222,"ARG_OF_PERICENTER":272.7403,"MEAN_ANOMALY":220.1109,"EPHEMERIS_TYPE":0,"CLASSIFICATION_TYPE":"U","NORAD_CAT_ID":64314,"ELEMENT_SET_NO":999,"REV_AT_EPOCH":577,"BSTAR":0.0034877728,"MEAN_MOTION_DOT":0.00041754,"MEAN_MOTION_DDOT":0}]
