STARLINK-34378          
1 64299U 25123J   26050.62935593  .00002526  00000+0  21934-3 0  9994
2 64299  70.0011 239.9773 0002535 263.5409  96.5462 14.98335393 38916
STARLINK-34376          
1 64300U 25123K   26050.92180996 -.00851775  00000+0 -81012-1 0  9990
2 64300  70.0007 239.3939 0001816 311.1989  48.9012 14.96303168 38955
STARLINK-34372          
1 64301U 25123L   26050.83782109  .00005337  00000+0  45475-3 0  9993
2 64301  70.0009 239.4990 0002878 265.4683  94.6147 14.98330770 38944
STARLINK-34379          
1 64302U 25123M   26050.84850958  .00028007  00000+0  64005-3 0  9992
2 64302  70.0015 213.0708 0003121 279.6312  80.4517 15.42738062 39609
STARLINK-34356          
1 64303U 25123N   26050.93795671  .00000585  00000+0  56803-4 0  9992
2 64303  70.0018 239.0394 0003105 266.5144  93.5660 14.98311892 38962
STARLINK-34360          
1 64304U 25123P   26050.65019083 -.00015545  00000+0 -12979-2 0  9996
2 64304  70.0000 240.0438 0003299 297.5560  62.5263 14.98329288 38913
STARLINK-34383          
1 64305U 25123Q   26050.93397484  .00004553  00000+0  38911-3 0  9992
2 64305  70.0001 239.4274 0003127 267.4684  92.6117 14.98329131 38951
STARLINK-34355          
1 64306U 25123R   26050.92979047  .00003207  00000+0  27640-3 0  9995
2 64306  69.9997 239.4160 0003003 268.8261  91.2554 14.98337245 38951
STARLINK-34380          
1 64307U 25123S   26050.92562192  .00004860  00000+0  41460-3 0  9997
2 64307  69.9999 239.3996 0002598 272.3127  87.7734 14.98351197 38951
STARLINK-34374          
1 64308U 25123T   26050.84622708  .00040384  00000+0  33566-2 0  9997
2 64308  70.0017 239.5245 0003804 266.1282  93.9443 14.98515528 38944
STARLINK-34370          
1 64309U 25123U   26050.90474468  .00002251  00000+0  19635-3 0  9996
2 64309  70.0006 239.3261 0002593 266.7417  93.3445 14.98335783 38959
STARLINK-34357          
1 64310U 25123V   26050.92545106  .00003401  00000+0  29264-3 0  9995
2 64310  70.0001 239.4048 0002915 267.2428  92.8397 14.98336626 38953
STARLINK-34368          
1 64311U 25123W   26050.85044383  .00002970  00000+0  25732-3 0  9995
2 64311  70.0019 239.5358 0002628 278.1629  81.9232 14.98221737 38945
STARLINK-34384          
1 64312U 25123X   26050.84200815  .00019364  00000+0  16253-2 0  9991
2 64312  70.0016 239.5153 0003361 263.7837  96.2939 14.98350237 38943
STARLINK-34358          
1 64313U 25123Y   26050.90040612  .00001050  00000+0  95751-4 0  9991
2 64313  70.0011 239.3143 0002384 264.8412  95.2475 14.98333632 38956
STARLINK-34354          
1 64314U 25123Z   26050.91670139  .00041754  00000+0  34878-2 0  9992
2 64314  70.0009 239.2220 0002759 272.7403 220.1109 14.98314756  5776
